{
    "links": {
        "self": "http://www.neowsapp.com/rest/v1/neo/3454526?api_key=iIulBulltgU6a56xZRHN4H3l9WmuAYTsLGpBGhQ2"
    },
    "id": "3454526",
    "neo_reference_id": "3454526",
    "name": "(2009 FR)",
    "designation": "2009 FR",
    "nasa_jpl_url": "http://ssd.jpl.nasa.gov/sbdb.cgi?sstr=3454526",
    "absolute_magnitude_h": 26.4,
    "estimated_diameter": {
        "kilometers": {
            "estimated_diameter_min": 0.0139493823,
            "estimated_diameter_max": 0.0311917671
        },
        "meters": {
            "estimated_diameter_min": 13.9493822934,
            "estimated_diameter_max": 31.1917670523
        },
        "miles": {
            "estimated_diameter_min": 0.0086677416,
            "estimated_diameter_max": 0.0193816595
        },
        "feet": {
            "estimated_diameter_min": 45.7656914036,
            "estimated_diameter_max": 102.3351970157
        }
    },
    "is_potentially_hazardous_asteroid": false,
    "close_approach_data": [
        {
            "close_approach_date": "2009-03-16",
            "close_approach_date_full": "2009-Mar-16 05:03",
            "epoch_date_close_approach": 1237179780000,
            "relative_velocity": {
                "kilometers_per_second": "7.1314612152",
                "kilometers_per_hour": "25673.2603745726",
                "miles_per_hour": "15952.3655921893"
            },
            "miss_distance": {
                "astronomical": "0.0171131995",
                "lunar": "6.6570346055",
                "kilometers": "2560098.194085065",
                "miles": "1590771.252761297"
            },
            "orbiting_body": "Earth"
        },
        {
            "close_approach_date": "2012-04-17",
            "close_approach_date_full": "2012-Apr-17 12:01",
            "epoch_date_close_approach": 1334664060000,
            "relative_velocity": {
                "kilometers_per_second": "14.1387642107",
                "kilometers_per_hour": "50899.5511584905",
                "miles_per_hour": "31627.0016628965"
            },
            "miss_distance": {
                "astronomical": "0.2362558858",
                "lunar": "91.9035395762",
                "kilometers": "35343377.290643246",
                "miles": "21961356.2867829548"
            },
            "orbiting_body": "Earth"
        }
    ],
    "orbital_data": {
        "orbit_id": "13",
        "orbit_determination_date": "2017-04-06 09:01:00",
        "first_observation_date": "2009-03-17",
        "last_observation_date": "2009-03-31",
        "data_arc_in_days": 14,
        "observations_used": 33,
        "orbit_uncertainty": "8",
        "minimum_orbit_intersection": ".0114391",
        "jupiter_tisserand_invariant": "3.562",
        "epoch_osculation": "2454912.5",
        "eccentricity": ".5238806928267408",
        "semi_major_axis": "2.097805054989013",
        "inclination": "1.505240246105015",
        "ascending_node_longitude": "183.895773112946",
        "orbital_period": "1109.80357184774",
        "perihelion_distance": ".9988054893659299",
        "perihelion_argument": "336.6840001358599",
        "aphelion_distance": "3.196804620612096",
        "perihelion_time": "2454894.588027491248",
        "mean_anomaly": "5.810316588200168",
        "mean_motion": ".3243817276607129",
        "equinox": "J2000",
        "orbit_class": {
            "orbit_class_type": "APO",
            "orbit_class_description": "Near-Earth asteroid orbits which cross the Earth’s orbit similar to that of 1862 Apollo",
            "orbit_class_range": "a (semi-major axis) > 1.0 AU; q (perihelion) < 1.017 AU"
        }
    },
    "is_sentry_object": false
}